NORAD_CAT_ID,OBJECT_NAME,OBJECT_TYPE,EPOCH,MEAN_MOTION,ECCENTRICITY,INCLINATION,RA_OF_ASC_NODE,ARG_OF_PERICENTER,MEAN_ANOMALY,BSTAR,MEAN_MOTION_DOT,MEAN_MOTION_DDOT,TLE_LINE0,TLE_LINE1,TLE_LINE2,SEMIMAJOR_AXIS,PERIOD,APOGEE,PERIGEE,DECAYED
49442.0,STARLINK-3098,PAYLOAD,2023-02-24 22:59:31,15.08842413,0.0001546,53.2133,146.4118,92.7971,267.3198,0.00062325,9.646e-05,0.0,0 STARLINK-3098,1 49442U 21104AL  23055.95800672  .00009646  00000-0  62325-3 0  9999,2 49442  53.2133 146.4118 0001546  92.7971 267.3198 15.08842413 72616,6917.873,95.437,540.808,538.669,0.0
49442.0,STARLINK-3098,PAYLOAD,2023-02-25 11:42:37,15.08833792,0.0001004,53.2128,144.0331,100.8358,259.2747,0.0012175,0.00019138,0.0,0 STARLINK-3098,1 49442U 21104AL  23056.48792994  .00019138  00000-0  12175-2 0  9999,2 49442  53.2128 144.0331 0001004 100.8358 259.2747 15.08833792 72698,6917.899,95.438,540.459,539.07,0.0
49442.0,STARLINK-3098,PAYLOAD,2023-02-25 13:18:00,15.08838041,0.0001028,53.2129,143.736,96.9297,263.1812,0.0014249,0.00022461,0.0,0 STARLINK-3098,1 49442U 21104AL  23056.55417027  .00022461  00000-0  14249-2 0  9995,2 49442  53.2129 143.7360 0001028  96.9297 263.1812 15.08838041 71621,6917.886,95.438,540.463,539.04,0.0
49442.0,STARLINK-3098,PAYLOAD,2023-02-25 18:04:09,15.08848605,0.0001031,53.2127,142.843,95.7574,264.3535,0.0018741,0.00029671,0.0,0 STARLINK-3098,1 49442U 21104AL  23056.75288964  .00029671  00000-0  18741-2 0  9994,2 49442  53.2127 142.8430 0001031  95.7574 264.3535 15.08848605 71651,6917.854,95.437,540.432,539.006,0.0
49442.0,STARLINK-3098,PAYLOAD,2023-02-26 11:33:23,15.08867538,0.0001146,53.2125,139.5695,102.7585,257.3535,0.0016008,0.000253,0.0,0 STARLINK-3098,1 49442U 21104AL  23057.48152533  .00025300  00000-0  16008-2 0  9996,2 49442  53.2125 139.5695 0001146 102.7585 257.3535 15.08867538 71763,6917.796,95.436,540.454,538.868,0.0
49442.0,STARLINK-3098,PAYLOAD,2023-02-26 14:44:09,15.08875474,0.0001137,53.2125,138.9754,99.4188,260.6932,0.0016074,0.00025411,0.0,0 STARLINK-3098,1 49442U 21104AL  23057.61400208  .00025411  00000-0  16074-2 0  9992,2 49442  53.2125 138.9754 0001137  99.4188 260.6932 15.08875474 72861,6917.772,95.435,540.424,538.85,0.0
49442.0,STARLINK-3098,PAYLOAD,2023-02-26 22:41:06,15.08843418,0.0001973,53.214,137.49,77.8663,282.255,0.00028427,4.239e-05,0.0,0 STARLINK-3098,1 49442U 21104AL  23057.94521093  .00004239  00000-0  28427-3 0  9995,2 49442  53.2140 137.4900 0001973  77.8663 282.2550 15.08843418 72916,6917.87,95.437,541.1,538.37,0.0
49442.0,STARLINK-3098,PAYLOAD,2023-02-27 14:34:57,15.08902722,0.000143,53.2142,134.5189,61.4907,298.6229,0.0062056,0.00100051,0.0,0 STARLINK-3098,1 49442U 21104AL  23058.60760900  .00100051  00000-0  62056-2 0  9995,2 49442  53.2142 134.5189 0001430  61.4907 298.6229 15.08902722 73013,6917.689,95.434,540.543,538.564,0.0
49442.0,STARLINK-3098,PAYLOAD,2023-02-27 22:31:52,15.08870848,7.58e-05,53.2139,133.0261,132.3354,227.7702,0.001373,0.00021649,0.0,0 STARLINK-3098,1 49442U 21104AL  23058.93880223  .00021649  00000-0  13730-2 0  9992,2 49442  53.2139 133.0261 0000758 132.3354 227.7702 15.08870848 73067,6917.786,95.436,540.175,539.127,0.0
49442.0,STARLINK-3098,PAYLOAD,2023-02-28 11:14:57,15.08876895,0.0001359,53.2149,130.6485,100.8906,259.2239,0.0010971,0.00017233,0.0,0 STARLINK-3098,1 49442U 21104AL  23059.46871754  .00017233  00000-0  10971-2 0  9998,2 49442  53.2149 130.6485 0001359 100.8906 259.2239 15.08876895 72062,6917.768,95.435,540.573,538.692,0.0
49442.0,STARLINK-3098,PAYLOAD,2023-02-28 16:01:06,15.08887504,0.0001574,53.2151,129.7539,119.0591,241.0559,0.0013792,0.00021759,0.0,0 STARLINK-3098,1 49442U 21104AL  23059.66743061  .00021759  00000-0  13792-2 0  9991,2 49442  53.2151 129.7539 0001574 119.0591 241.0559 15.08887504 72091,6917.735,95.435,540.689,538.511,0.0
49442.0,STARLINK-3098,PAYLOAD,2023-03-01 04:44:12,15.08809468,0.0001734,53.2145,127.3773,137.7572,222.3554,0.00052792,8.117e-05,0.0,0 STARLINK-3098,1 49442U 21104AL  23060.19736985  .00008117  00000-0  52792-3 0  9995,2 49442  53.2145 127.3773 0001734 137.7572 222.3554 15.08809468 73251,6917.974,95.439,541.038,538.639,0.0
49442.0,STARLINK-3098,PAYLOAD,2023-03-01 09:30:22,15.08792988,0.0001112,53.2147,126.4867,121.6883,238.4218,0.000571,8.8e-05,0.0,0 STARLINK-3098,1 49442U 21104AL  23060.39609741  .00008800  00000-0  57100-3 0  9993,2 49442  53.2147 126.4867 0001112 121.6883 238.4218 15.08792988 73280,6918.024,95.441,540.658,539.12,0.0
49442.0,STARLINK-3098,PAYLOAD,2023-03-01 14:16:32,15.08793388,0.0001203,53.2155,125.5953,116.0123,244.0993,0.0010714,0.00016783,0.0,0 STARLINK-3098,1 49442U 21104AL  23060.59482520  .00016783  00000-0  10714-2 0  9997,2 49442  53.2155 125.5953 0001203 116.0123 244.0993 15.08793388 72233,6918.023,95.441,540.72,539.056,0.0
49442.0,STARLINK-3098,PAYLOAD,2023-03-02 15:42:43,15.0886609,0.0001137,53.2153,120.8373,116.6337,243.4771,0.0017631,0.00027903,0.0,0 STARLINK-3098,1 49442U 21104AL  23061.65466779  .00027903  00000-0  17631-2 0  9994,2 49442  53.2153 120.8373 0001137 116.6337 243.4771 15.08866090 72399,6917.801,95.436,540.452,538.879,0.0
49442.0,STARLINK-3098,PAYLOAD,2023-03-03 09:11:56,15.08890978,0.0001174,53.2151,117.5662,114.6477,245.4638,0.0017583,0.00027845,0.0,0 STARLINK-3098,1 49442U 21104AL  23062.38329609  .00027845  00000-0  17583-2 0  9996,2 49442  53.2151 117.5662 0001174 114.6477 245.4638 15.08890978 73583,6917.725,95.434,540.402,538.777,0.0
49442.0,STARLINK-3098,PAYLOAD,2023-03-03 10:47:19,15.08892527,0.0001094,53.2152,117.2697,109.5796,250.5314,0.002488,0.00039588,0.0,0 STARLINK-3098,1 49442U 21104AL  23062.44953549  .00039588  00000-0  24880-2 0  9994,2 49442  53.2152 117.2697 0001094 109.5796 250.5314 15.08892527 72519,6917.72,95.434,540.342,538.828,0.0
49442.0,STARLINK-3098,PAYLOAD,2023-03-03 20:19:38,15.08882917,0.0001559,53.2146,115.4779,67.1792,292.9365,0.0015066,0.00023799,0.0,0 STARLINK-3098,1 49442U 21104AL  23062.84696988  .00023799  00000-0  15066-2 0  9992,2 49442  53.2146 115.4779 0001559  67.1792 292.9365 15.08882917 73658,6917.749,95.435,540.693,538.536,0.0
49442.0,STARLINK-3098,PAYLOAD,2023-03-04 05:51:57,15.08861088,0.0002868,53.2152,113.7076,91.5784,268.5536,0.0010356,0.00016242,0.0,0 STARLINK-3098,1 49442U 21104AL  23063.24441445  .00016242  00000-0  10356-2 0  9995,2 49442  53.2152 113.7076 0002868  91.5784 268.5536 15.08861088 73714,6917.816,95.436,541.665,537.697,0.0
49442.0,STARLINK-3098,PAYLOAD,2023-03-04 10:38:06,15.08850517,0.0001457,53.2146,112.8089,92.3731,267.7427,0.00035009,5.29e-05,0.0,0 STARLINK-3098,1 49442U 21104AL  23063.44313232  .00005290  00000-0  35009-3 0  9993,2 49442  53.2146 112.8089 0001457  92.3731 267.7427 15.08850517 73743,6917.848,95.437,540.721,538.705,0.0
49442.0,STARLINK-3098,PAYLOAD,2023-03-04 20:10:25,15.0884369,0.0001462,53.2156,111.0234,99.2015,260.9143,0.00047912,7.346e-05,0.0,0 STARLINK-3098,1 49442U 21104AL  23063.84057392  .00007346  00000-0  47912-3 0  9999,2 49442  53.2156 111.0234 0001462  99.2015 260.9143 15.08843690 73805,6917.869,95.437,540.746,538.723,0.0
49442.0,STARLINK-3098,PAYLOAD,2023-03-05 07:18:07,15.088504,0.0001732,53.2139,108.9427,95.7563,264.3627,0.0014181,0.0002236,0.0,0 STARLINK-3098,1 49442U 21104AL  23064.30425641  .00022360  00000-0  14181-2 0  9991,2 49442  53.2139 108.9427 0001732  95.7563 264.3627 15.08850400 72793,6917.849,95.437,540.912,538.515,0.0
49442.0,STARLINK-3098,PAYLOAD,2023-03-05 20:01:12,15.08850493,0.0001489,53.2141,106.5652,77.6052,282.5106,0.00068096,0.00010569,0.0,0 STARLINK-3098,1 49442U 21104AL  23064.83417557  .00010569  00000-0  68096-3 0  9999,2 49442  53.2141 106.5652 0001489  77.6052 282.5106 15.08850493 73956,6917.848,95.437,540.743,538.683,0.0
49442.0,STARLINK-3098,PAYLOAD,2023-03-06 10:19:41,15.08848998,0.0001845,53.2146,103.888,82.9229,277.1973,0.0003583,5.42e-05,0.0,0 STARLINK-3098,1 49442U 21104AL  23065.43033566  .00005420  00000-0  35830-3 0  9990,2 49442  53.2146 103.8880 0001845  82.9229 277.1973 15.08848998 74045,6917.853,95.437,540.994,538.442,0.0
49442.0,STARLINK-3098,PAYLOAD,2023-03-06 19:51:59,15.08839289,0.0001536,53.2144,102.1014,90.0379,270.0789,0.0001308,1.794e-05,0.0,0 STARLINK-3098,1 49442U 21104AL  23065.82777749  .00001794  00000-0  13080-3 0  9994,2 49442  53.2144 102.1014 0001536  90.0379 270.0789 15.08839289 74104,6917.883,95.438,540.81,538.685,0.0
49442.0,STARLINK-3098,PAYLOAD,2023-03-07 13:21:14,15.08845027,0.0001541,53.2152,98.8284,107.7902,252.3258,0.00037402,5.67e-05,0.0,0 STARLINK-3098,1 49442U 21104AL  23066.55641951  .00005670  00000-0  37402-3 0  9991,2 49442  53.2152  98.8284 0001541 107.7902 252.3258 15.08845027 73130,6917.865,95.437,540.796,538.664,0.0
49442.0,STARLINK-3098,PAYLOAD,2023-03-08 02:04:20,15.08835922,0.0001469,53.2149,96.4488,98.7269,261.3889,0.00022075,3.227e-05,0.0,0 STARLINK-3098,1 49442U 21104AL  23067.08634615  .00003227  00000-0  22075-3 0  9995,2 49442  53.2149  96.4488 0001469  98.7269 261.3889 15.08835922 74291,6917.893,95.438,540.774,538.742,0.0
49442.0,STARLINK-3098,PAYLOAD,2023-03-08 13:12:02,15.08868127,0.0001252,53.2143,94.3705,83.8346,276.2789,0.0022152,0.0003517,0.0,0 STARLINK-3098,1 49442U 21104AL  23067.55002343  .00035170  00000-0  22152-2 0  9991,2 49442  53.2143  94.3705 0001252  83.8346 276.2789 15.08868127 74360,6917.794,95.436,540.526,538.793,0.0
49442.0,STARLINK-3098,PAYLOAD,2023-03-09 06:41:16,15.08871093,0.0001219,53.2144,91.0979,98.8624,261.2507,0.0018307,0.00028993,0.0,0 STARLINK-3098,1 49442U 21104AL  23068.27865884  .00028993  00000-0  18307-2 0  9990,2 49442  53.2144  91.0979 0001219  98.8624 261.2507 15.08871093 74476,6917.785,95.436,540.494,538.807,0.0
49442.0,STARLINK-3098,PAYLOAD,2023-03-10 04:56:39,15.08850642,0.0001723,53.2142,86.9326,117.995,242.1216,0.00031506,4.731e-05,0.0,0 STARLINK-3098,1 49442U 21104AL  23069.20601451  .00004731  00000-0  31506-3 0  9993,2 49442  53.2142  86.9326 0001723 117.9950 242.1216 15.08850642 74616,6917.848,95.437,540.905,538.521,0.0
